start=new Date('2022-06-28T00:00:00.000Z').valueOf();
sats=[{"CENTER_NAME":"EARTH","TIME_SYSTEM":"UTC","EPOCH":"2022-06-27T20:24:46.690560","REV_AT_EPOCH":"2494","TLE_LINE2":"2 51118  53.2155 233.2639 0001942  49.3022 310.8138 15.08833394 24940","APOAPSIS":"541.109","BSTAR":"-0.00007860500000","OBJECT_NAME":"STARLINK-3394","MEAN_ELEMENT_THEORY":"SGP4","RCS_SIZE":"LARGE","MEAN_MOTION_DOT":"-0.00001539","PERIAPSIS":"538.422","MEAN_ANOMALY":"310.8138","PERIOD":"95.438","GP_ID":"206992707","INCLINATION":"53.2155","COUNTRY_CODE":"US","MEAN_MOTION":"15.08833394","SITE":"AFETR","EPHEMERIS_TYPE":"0","CLASSIFICATION_TYPE":"U","ECCENTRICITY":"0.00019420","MEAN_MOTION_DDOT":"0.0000000000000","OBJECT_ID":"2022-005Q","LAUNCH_DATE":"2022-01-19","NORAD_CAT_ID":"51118","REF_FRAME":"TEME","DECAY_DATE":null,"RA_OF_ASC_NODE":"233.2639","TLE_LINE1":"1 51118U 22005Q   22178.85054040 -.00001539  00000-0 -78605-4 0  9991","SEMIMAJOR_AXIS":"6917.901","ELEMENT_SET_NO":"999","OBJECT_TYPE":"PAYLOAD","ARG_OF_PERICENTER":"49.3022","FILE":"3504144"},{"PERIOD":"95.438","MEAN_ANOMALY":"316.3381","GP_ID":"206993459","INCLINATION":"53.2171","EPHEMERIS_TYPE":"0","SITE":"AFETR","MEAN_MOTION":"15.08833168","COUNTRY_CODE":"US","MEAN_MOTION_DDOT":"0.0000000000000","ECCENTRICITY":"0.00019620","CLASSIFICATION_TYPE":"U","EPOCH":"2022-06-27T13:31:26.403456","CENTER_NAME":"EARTH","TIME_SYSTEM":"UTC","TLE_LINE2":"2 51119  53.2171 234.5668 0001962  43.7766 316.3381 15.08833168 24906","REV_AT_EPOCH":"2490","OBJECT_NAME":"STARLINK-3390","BSTAR":"0.00004111700000","APOAPSIS":"541.124","PERIAPSIS":"538.409","MEAN_MOTION_DOT":"0.00000366","RCS_SIZE":"LARGE","MEAN_ELEMENT_THEORY":"SGP4","ARG_OF_PERICENTER":"43.7766","OBJECT_TYPE":"PAYLOAD","FILE":"3504144","LAUNCH_DATE":"2022-01-19","OBJECT_ID":"2022-005R","REF_FRAME":"TEME","DECAY_DATE":null,"NORAD_CAT_ID":"51119","SEMIMAJOR_AXIS":"6917.901","ELEMENT_SET_NO":"999","TLE_LINE1":"1 51119U 22005R   22178.56350004  .00000366  00000-0  41117-4 0  9992","RA_OF_ASC_NODE":"234.5668"},{"FILE":"3504144","OBJECT_TYPE":"PAYLOAD","ARG_OF_PERICENTER":"41.1679","DECAY_DATE":null,"REF_FRAME":"TEME","NORAD_CAT_ID":"51120","SEMIMAJOR_AXIS":"6917.885","ELEMENT_SET_NO":"999","TLE_LINE1":"1 51120U 22005S   22178.88734034 -.00000477  00000-0 -11836-4 0  9998","RA_OF_ASC_NODE":"233.1171","LAUNCH_DATE":"2022-01-19","OBJECT_ID":"2022-005S","SITE":"AFETR","EPHEMERIS_TYPE":"0","COUNTRY_CODE":"US","MEAN_MOTION":"15.08838547","MEAN_MOTION_DDOT":"0.0000000000000","ECCENTRICITY":"0.00021280","CLASSIFICATION_TYPE":"U","MEAN_ANOMALY":"318.9473","PERIOD":"95.438","INCLINATION":"53.2172","GP_ID":"206993705","OBJECT_NAME":"STARLINK-3398","APOAPSIS":"541.222","BSTAR":"-0.00001183600000","MEAN_MOTION_DOT":"-0.00000477","PERIAPSIS":"538.278","MEAN_ELEMENT_THEORY":"SGP4","RCS_SIZE":"LARGE","EPOCH":"2022-06-27T21:17:46.205376","CENTER_NAME":"EARTH","TIME_SYSTEM":"UTC","REV_AT_EPOCH":"2495","TLE_LINE2":"2 51120  53.2172 233.1171 0002128  41.1679 318.9473 15.08838547 24954"},{"OBJECT_ID":"2022-005T","LAUNCH_DATE":"2022-01-19","TLE_LINE1":"1 51121U 22005T   22178.43837259  .00000524  00000-0  51021-4 0  9994","RA_OF_ASC_NODE":"235.1147","SEMIMAJOR_AXIS":"6917.897","ELEMENT_SET_NO":"999","NORAD_CAT_ID":"51121","REF_FRAME":"TEME","DECAY_DATE":null,"OBJECT_TYPE":"PAYLOAD","ARG_OF_PERICENTER":"42.5259","FILE":"3503902","REV_AT_EPOCH":"2488","TLE_LINE2":"2 51121  53.2160 235.1147 0001881  42.5259 317.5879 15.08834591 24883","CENTER_NAME":"EARTH","TIME_SYSTEM":"UTC","EPOCH":"2022-06-27T10:31:15.391776","MEAN_ELEMENT_THEORY":"SGP4","RCS_SIZE":"LARGE","MEAN_MOTION_DOT":"0.00000524","PERIAPSIS":"538.461","APOAPSIS":"541.063","BSTAR":"0.00005102100000","OBJECT_NAME":"STARLINK-3399","INCLINATION":"53.2160","GP_ID":"206962910","PERIOD":"95.438","MEAN_ANOMALY":"317.5879","CLASSIFICATION_TYPE":"U","ECCENTRICITY":"0.00018810","MEAN_MOTION_DDOT":"0.0000000000000","COUNTRY_CODE":"US","MEAN_MOTION":"15.08834591","SITE":"AFETR","EPHEMERIS_TYPE":"0"},{"FILE":"3504144","OBJECT_TYPE":"PAYLOAD","ARG_OF_PERICENTER":"48.5844","SEMIMAJOR_AXIS":"6917.887","ELEMENT_SET_NO":"999","RA_OF_ASC_NODE":"233.0984","TLE_LINE1":"1 51122U 22005U   22178.89101760 -.00001548  00000-0 -79200-4 0  9994","REF_FRAME":"TEME","DECAY_DATE":null,"NORAD_CAT_ID":"51122","LAUNCH_DATE":"2022-01-19","OBJECT_ID":"2022-005U","MEAN_MOTION_DDOT":"0.0000000000000","CLASSIFICATION_TYPE":"U","ECCENTRICITY":"0.00019170","SITE":"AFETR","EPHEMERIS_TYPE":"0","COUNTRY_CODE":"US","MEAN_MOTION":"15.08837960","INCLINATION":"53.2170","GP_ID":"206993207","PERIOD":"95.438","MEAN_ANOMALY":"311.5312","MEAN_MOTION_DOT":"-0.00001548","PERIAPSIS":"538.425","MEAN_ELEMENT_THEORY":"SGP4","RCS_SIZE":"LARGE","OBJECT_NAME":"STARLINK-3373","APOAPSIS":"541.078","BSTAR":"-0.00007920000000","REV_AT_EPOCH":"2495","TLE_LINE2":"2 51122  53.2170 233.0984 0001917  48.5844 311.5312 15.08837960 24954","EPOCH":"2022-06-27T21:23:03.920640","TIME_SYSTEM":"UTC","CENTER_NAME":"EARTH"},{"COUNTRY_CODE":"US","MEAN_MOTION":"15.08843007","SITE":"AFETR","EPHEMERIS_TYPE":"0","ECCENTRICITY":"0.00020520","CLASSIFICATION_TYPE":"U","MEAN_MOTION_DDOT":"0.0000000000000","MEAN_ANOMALY":"315.9633","PERIOD":"95.437","GP_ID":"206993959","INCLINATION":"53.2169","APOAPSIS":"541.156","BSTAR":"0.00013096000000","OBJECT_NAME":"STARLINK-3392","MEAN_ELEMENT_THEORY":"SGP4","RCS_SIZE":"LARGE","MEAN_MOTION_DOT":"0.00001797","PERIAPSIS":"538.317","TIME_SYSTEM":"UTC","CENTER_NAME":"EARTH","EPOCH":"2022-06-27T21:12:27.830016","REV_AT_EPOCH":"2495","TLE_LINE2":"2 51123  53.2169 233.1312 0002052  44.1523 315.9633 15.08843007 24959","FILE":"3504144","OBJECT_TYPE":"PAYLOAD","ARG_OF_PERICENTER":"44.1523","NORAD_CAT_ID":"51123","REF_FRAME":"TEME","DECAY_DATE":null,"TLE_LINE1":"1 51123U 22005V   22178.88365544  .00001797  00000-0  13096-3 0  9990","RA_OF_ASC_NODE":"233.1312","SEMIMAJOR_AXIS":"6917.871","ELEMENT_SET_NO":"999","OBJECT_ID":"2022-005V","LAUNCH_DATE":"2022-01-19"},{"TLE_LINE2":"2 51124  53.2188 244.4125 0001865  53.0187 307.0975 15.08837677 24771","REV_AT_EPOCH":"2477","EPOCH":"2022-06-27T14:17:47.696352","CENTER_NAME":"EARTH","TIME_SYSTEM":"UTC","PERIAPSIS":"538.462","MEAN_MOTION_DOT":"0.00000332","RCS_SIZE":"LARGE","MEAN_ELEMENT_THEORY":"SGP4","OBJECT_NAME":"STARLINK-3389","BSTAR":"0.00003894800000","APOAPSIS":"541.043","GP_ID":"206994205","INCLINATION":"53.2188","MEAN_ANOMALY":"307.0975","PERIOD":"95.438","MEAN_MOTION_DDOT":"0.0000000000000","ECCENTRICITY":"0.00018650","CLASSIFICATION_TYPE":"U","EPHEMERIS_TYPE":"0","SITE":"AFETR","MEAN_MOTION":"15.08837677","COUNTRY_CODE":"US","LAUNCH_DATE":"2022-01-19","OBJECT_ID":"2022-005W","SEMIMAJOR_AXIS":"6917.887","ELEMENT_SET_NO":"999","RA_OF_ASC_NODE":"244.4125","TLE_LINE1":"1 51124U 22005W   22178.59569093  .00000332  00000-0  38948-4 0  9992","REF_FRAME":"TEME","DECAY_DATE":null,"NORAD_CAT_ID":"51124","ARG_OF_PERICENTER":"53.0187","OBJECT_TYPE":"PAYLOAD","FILE":"3504144"},{"OBJECT_ID":"2022-005X","LAUNCH_DATE":"2022-01-19","RA_OF_ASC_NODE":"245.0696","TLE_LINE1":"1 51125U 22005X   22178.45217166  .00000189  00000-0  29981-4 0  9996","SEMIMAJOR_AXIS":"6917.864","ELEMENT_SET_NO":"999","NORAD_CAT_ID":"51125","REF_FRAME":"TEME","DECAY_DATE":null,"ARG_OF_PERICENTER":"44.7635","OBJECT_TYPE":"PAYLOAD","FILE":"3503902","TLE_LINE2":"2 51125  53.2168 245.0696 0001659  44.7635 315.3491 15.08845248 24730","REV_AT_EPOCH":"2473","CENTER_NAME":"EARTH","TIME_SYSTEM":"UTC","EPOCH":"2022-06-27T10:51:07.631424","RCS_SIZE":"LARGE","MEAN_ELEMENT_THEORY":"SGP4","PERIAPSIS":"538.582","MEAN_MOTION_DOT":"0.00000189","BSTAR":"0.00002998100000","APOAPSIS":"540.877","OBJECT_NAME":"STARLINK-3387","INCLINATION":"53.2168","GP_ID":"206963410","PERIOD":"95.437","MEAN_ANOMALY":"315.3491","CLASSIFICATION_TYPE":"U","ECCENTRICITY":"0.00016590","MEAN_MOTION_DDOT":"0.0000000000000","MEAN_MOTION":"15.08845248","COUNTRY_CODE":"US","EPHEMERIS_TYPE":"0","SITE":"AFETR"},{"ECCENTRICITY":"0.00016300","CLASSIFICATION_TYPE":"U","MEAN_MOTION_DDOT":"0.0000000000000","COUNTRY_CODE":"US","MEAN_MOTION":"15.08837712","SITE":"AFETR","EPHEMERIS_TYPE":"0","INCLINATION":"53.2193","GP_ID":"206992708","MEAN_ANOMALY":"312.4929","PERIOD":"95.438","MEAN_ELEMENT_THEORY":"SGP4","RCS_SIZE":"LARGE","MEAN_MOTION_DOT":"-0.00001105","PERIAPSIS":"538.625","APOAPSIS":"540.880","BSTAR":"-0.00005136300000","OBJECT_NAME":"STARLINK-3386","REV_AT_EPOCH":"2477","TLE_LINE2":"2 51126  53.2193 244.4350 0001630  47.6201 312.4929 15.08837712 24774","CENTER_NAME":"EARTH","TIME_SYSTEM":"UTC","EPOCH":"2022-06-27T14:12:30.124512","FILE":"3504144","OBJECT_TYPE":"PAYLOAD","ARG_OF_PERICENTER":"47.6201","RA_OF_ASC_NODE":"244.4350","TLE_LINE1":"1 51126U 22005Y   22178.59201533 -.00001105  00000-0 -51363-4 0  9993","SEMIMAJOR_AXIS":"6917.887","ELEMENT_SET_NO":"999","NORAD_CAT_ID":"51126","REF_FRAME":"TEME","DECAY_DATE":null,"OBJECT_ID":"2022-005Y","LAUNCH_DATE":"2022-01-19"},{"MEAN_MOTION_DDOT":"0.0000000000000","ECCENTRICITY":"0.00017070","CLASSIFICATION_TYPE":"U","SITE":"AFETR","EPHEMERIS_TYPE":"0","COUNTRY_CODE":"US","MEAN_MOTION":"15.08836743","INCLINATION":"53.2179","GP_ID":"206993460","MEAN_ANOMALY":"302.4835","PERIOD":"95.438","MEAN_MOTION_DOT":"-0.00001071","PERIAPSIS":"538.574","MEAN_ELEMENT_THEORY":"SGP4","RCS_SIZE":"LARGE","OBJECT_NAME":"STARLINK-3370","APOAPSIS":"540.936","BSTAR":"-0.00004921900000","REV_AT_EPOCH":"2477","TLE_LINE2":"2 51127  53.2179 244.1486 0001707  57.6323 302.4835 15.08836743 24775","EPOCH":"2022-06-27T15:42:34.806528","CENTER_NAME":"EARTH","TIME_SYSTEM":"UTC","FILE":"3504144","OBJECT_TYPE":"PAYLOAD","ARG_OF_PERICENTER":"57.6323","SEMIMAJOR_AXIS":"6917.890","ELEMENT_SET_NO":"999","RA_OF_ASC_NODE":"244.1486","TLE_LINE1":"1 51127U 22005Z   22178.65456952 -.00001071  00000-0 -49219-4 0  9997","DECAY_DATE":null,"REF_FRAME":"TEME","NORAD_CAT_ID":"51127","LAUNCH_DATE":"2022-01-19","OBJECT_ID":"2022-005Z"}];
